ONEWEB-0641             
1 55805U 23029K   23317.45449929 -.00000193  00000+0 -51419-3 0  9998
2 55805  87.9111 133.4108 0001200  84.7924 275.3346 13.19725233 34732
ONEWEB-0642             
1 55806U 23029L   23317.44978328  .00000145  00000+0  33065-3 0  9990
2 55806  87.9182 133.4115 0000394  57.1927 302.9244 13.19726422 34723
ONEWEB-0643             
1 55807U 23029M   23317.16275376 -.00002436  00000+0 -66061-2 0  9991
2 55807  87.8953 118.2359 0000442 120.2722 239.8452 13.14508216 35688
ONEWEB-0644             
1 55808U 23029N   23316.91431506  .00000071  00000+0  14440-3 0  9999
2 55808  87.9184 133.5098 0000810  82.3373 277.7852 13.19723482 33968
ONEWEB-0645             
1 55809U 23029P   23316.91036812  .00000123  00000+0  27387-3 0  9993
2 55809  87.9183 133.5146 0001220  63.5674 296.5584 13.19726016 33960
ONEWEB-0646             
1 55810U 23029Q   23317.47108066  .00000017  00000+0  10461-4 0  9996
2 55810  87.9181 133.4062 0001203  92.9093 267.2177 13.19722413 34712
ONEWEB-0648             
1 55811U 23029R   23316.97878075  .00000330  00000+0  85567-3 0  9991
2 55811  87.8954 118.2412 0000692  42.8646 317.2537 13.14508108 35668
ONEWEB-0649             
1 55812U 23029S   23317.50978363  .00000084  00000+0  17837-3 0  9994
2 55812  87.9177 133.3984 0001074  71.9637 288.1613 13.19723887 34755
